{
  "short_name": "GEO_1",
  "display_name": "GEO_1",
  "motion": [
    "tle { line1: \"1 37843U 11059A   22275.79558366 -.00000031  00000-0  00000-0 0  9993\" line2: \"2 37843   0.0179 221.3183 0002083 321.0668   0.4195  1.00271789 33755\" }"
  ],
  "router_id": "223.1.0.0"
}
